[
  {
    "COMMENT": "GENERATED VIA SPACETRACK.ORG API",
    "ORIGINATOR": "18 SPCS",
    "NORAD_CAT_ID": "48621",
    "OBJECT_NAME": "HAIYANG 2D",
    "OBJECT_TYPE": "PAYLOAD",
    "CLASSIFICATION_TYPE": "U",
    "INTLDES": "21043A",
    "EPOCH": "2023-08-29 18:07:05",
    "EPOCH_MICROSECONDS": "32704",
    "MEAN_MOTION": "13.83370557",
    "ECCENTRICITY": "0.0007527",
    "INCLINATION": "65.9995",
    "RA_OF_ASC_NODE": "330.2037",
    "ARG_OF_PERICENTER": "266.0847",
    "MEAN_ANOMALY": "93.9361",
    "EPHEMERIS_TYPE": "0",
    "ELEMENT_SET_NO": "999",
    "REV_AT_EPOCH": "11516",
    "BSTAR": "0.000069917",
    "MEAN_MOTION_DOT": "-0.00000004",
    "MEAN_MOTION_DDOT": "0",
    "FILE": "3992418",
    "TLE_LINE0": "0 HAIYANG 2D",
    "TLE_LINE1": "1 48621U 21043A   23241.75491936 -.00000004  00000-0  69917-4 0  9998",
    "TLE_LINE2": "2 48621  65.9995 330.2037 0007527 266.0847  93.9361 13.83370557115165",
    "OBJECT_ID": "2021-043A",
    "OBJECT_NUMBER": "48621",
    "SEMIMAJOR_AXIS": "7330.093",
    "PERIOD": "104.094",
    "APOGEE": "957.475",
    "PERIGEE": "946.441",
    "DECAYED": "0"
  },
  {
    "COMMENT": "GENERATED VIA SPACETRACK.ORG API",
    "ORIGINATOR": "18 SPCS",
    "NORAD_CAT_ID": "48621",
    "OBJECT_NAME": "HAIYANG 2D",
    "OBJECT_TYPE": "PAYLOAD",
    "CLASSIFICATION_TYPE": "U",
    "INTLDES": "21043A",
    "EPOCH": "2023-08-29 21:35:17",
    "EPOCH_MICROSECONDS": "594016",
    "MEAN_MOTION": "13.83370675",
    "ECCENTRICITY": "0.0007522",
    "INCLINATION": "65.9996",
    "RA_OF_ASC_NODE": "329.844",
    "ARG_OF_PERICENTER": "265.9183",
    "MEAN_ANOMALY": "94.1026",
    "EPHEMERIS_TYPE": "0",
    "ELEMENT_SET_NO": "999",
    "REV_AT_EPOCH": "11514",
    "BSTAR": "0.00006855",
    "MEAN_MOTION_DOT": "-0.00000006",
    "MEAN_MOTION_DDOT": "0",
    "FILE": "3992439",
    "TLE_LINE0": "0 HAIYANG 2D",
    "TLE_LINE1": "1 48621U 21043A   23241.89950919 -.00000006  00000-0  68550-4 0  9998",
    "TLE_LINE2": "2 48621  65.9996 329.8440 0007522 265.9183  94.1026 13.83370675115144",
    "OBJECT_ID": "2021-043A",
    "OBJECT_NUMBER": "48621",
    "SEMIMAJOR_AXIS": "7330.093",
    "PERIOD": "104.094",
    "APOGEE": "957.471",
    "PERIGEE": "946.444",
    "DECAYED": "0"
  },
  {
    "COMMENT": "GENERATED VIA SPACETRACK.ORG API",
    "ORIGINATOR": "18 SPCS",
    "NORAD_CAT_ID": "48621",
    "OBJECT_NAME": "HAIYANG 2D",
    "OBJECT_TYPE": "PAYLOAD",
    "CLASSIFICATION_TYPE": "U",
    "INTLDES": "21043A",
    "EPOCH": "2023-08-30 04:31:42",
    "EPOCH_MICROSECONDS": "731328",
    "MEAN_MOTION": "13.83370678",
    "ECCENTRICITY": "0.0007516",
    "INCLINATION": "65.9995",
    "RA_OF_ASC_NODE": "329.1241",
    "ARG_OF_PERICENTER": "265.9211",
    "MEAN_ANOMALY": "94.0999",
    "EPHEMERIS_TYPE": "0",
    "ELEMENT_SET_NO": "999",
    "REV_AT_EPOCH": "11522",
    "BSTAR": "0.000057243",
    "MEAN_MOTION_DOT": "-0.00000018",
    "MEAN_MOTION_DDOT": "0",
    "FILE": "3992722",
    "TLE_LINE0": "0 HAIYANG 2D",
    "TLE_LINE1": "1 48621U 21043A   23242.18868902 -.00000018  00000-0  57243-4 0  9991",
    "TLE_LINE2": "2 48621  65.9995 329.1241 0007516 265.9211  94.0999 13.83370678115220",
    "OBJECT_ID": "2021-043A",
    "OBJECT_NUMBER": "48621",
    "SEMIMAJOR_AXIS": "7330.093",
    "PERIOD": "104.094",
    "APOGEE": "957.467",
    "PERIGEE": "946.448",
    "DECAYED": "0"
  },
  {
    "COMMENT": "GENERATED VIA SPACETRACK.ORG API",
    "ORIGINATOR": "18 SPCS",
    "NORAD_CAT_ID": "48621",
    "OBJECT_NAME": "HAIYANG 2D",
    "OBJECT_TYPE": "PAYLOAD",
    "CLASSIFICATION_TYPE": "U",
    "INTLDES": "21043A",
    "EPOCH": "2023-08-30 09:44:01",
    "EPOCH_MICROSECONDS": "575456",
    "MEAN_MOTION": "13.83370768",
    "ECCENTRICITY": "0.0007518",
    "INCLINATION": "65.9995",
    "RA_OF_ASC_NODE": "328.5841",
    "ARG_OF_PERICENTER": "265.8801",
    "MEAN_ANOMALY": "94.1408",
    "EPHEMERIS_TYPE": "0",
    "ELEMENT_SET_NO": "999",
    "REV_AT_EPOCH": "11525",
    "BSTAR": "0.000099439",
    "MEAN_MOTION_DOT": "0.00000028",
    "MEAN_MOTION_DDOT": "0",
    "FILE": "3992990",
    "TLE_LINE0": "0 HAIYANG 2D",
    "TLE_LINE1": "1 48621U 21043A   23242.40557379  .00000028  00000-0  99439-4 0  9992",
    "TLE_LINE2": "2 48621  65.9995 328.5841 0007518 265.8801  94.1408 13.83370768115254",
    "OBJECT_ID": "2021-043A",
    "OBJECT_NUMBER": "48621",
    "SEMIMAJOR_AXIS": "7330.092",
    "PERIOD": "104.094",
    "APOGEE": "957.468",
    "PERIGEE": "946.447",
    "DECAYED": "0"
  },
  {
    "COMMENT": "GENERATED VIA SPACETRACK.ORG API",
    "ORIGINATOR": "18 SPCS",
    "NORAD_CAT_ID": "48621",
    "OBJECT_NAME": "HAIYANG 2D",
    "OBJECT_TYPE": "PAYLOAD",
    "CLASSIFICATION_TYPE": "U",
    "INTLDES": "21043A",
    "EPOCH": "2023-08-30 18:24:32",
    "EPOCH_MICROSECONDS": "989536",
    "MEAN_MOTION": "13.83370844",
    "ECCENTRICITY": "0.000752",
    "INCLINATION": "65.9994",
    "RA_OF_ASC_NODE": "327.6842",
    "ARG_OF_PERICENTER": "265.9221",
    "MEAN_ANOMALY": "94.0988",
    "EPHEMERIS_TYPE": "0",
    "ELEMENT_SET_NO": "999",
    "REV_AT_EPOCH": "11530",
    "BSTAR": "0.000103",
    "MEAN_MOTION_DOT": "0.00000032",
    "MEAN_MOTION_DDOT": "0",
    "FILE": "3993274",
    "TLE_LINE0": "0 HAIYANG 2D",
    "TLE_LINE1": "1 48621U 21043A   23242.76704849  .00000032  00000-0  10300-3 0  9991",
    "TLE_LINE2": "2 48621  65.9994 327.6842 0007520 265.9221  94.0988 13.83370844115307",
    "OBJECT_ID": "2021-043A",
    "OBJECT_NUMBER": "48621",
    "SEMIMAJOR_AXIS": "7330.092",
    "PERIOD": "104.094",
    "APOGEE": "957.469",
    "PERIGEE": "946.445",
    "DECAYED": "0"
  },
  {
    "COMMENT": "GENERATED VIA SPACETRACK.ORG API",
    "ORIGINATOR": "18 SPCS",
    "NORAD_CAT_ID": "48621",
    "OBJECT_NAME": "HAIYANG 2D",
    "OBJECT_TYPE": "PAYLOAD",
    "CLASSIFICATION_TYPE": "U",
    "INTLDES": "21043A",
    "EPOCH": "2023-08-30 20:08:39",
    "EPOCH_MICROSECONDS": "271488",
    "MEAN_MOTION": "13.83370859",
    "ECCENTRICITY": "0.000752",
    "INCLINATION": "65.9994",
    "RA_OF_ASC_NODE": "327.5043",
    "ARG_OF_PERICENTER": "265.9409",
    "MEAN_ANOMALY": "94.08",
    "EPHEMERIS_TYPE": "0",
    "ELEMENT_SET_NO": "999",
    "REV_AT_EPOCH": "11527",
    "BSTAR": "0.00010215",
    "MEAN_MOTION_DOT": "0.00000031",
    "MEAN_MOTION_DDOT": "0",
    "FILE": "3993321",
    "TLE_LINE0": "0 HAIYANG 2D",
    "TLE_LINE1": "1 48621U 21043A   23242.83934342  .00000031  00000-0  10215-3 0  9996",
    "TLE_LINE2": "2 48621  65.9994 327.5043 0007520 265.9409  94.0800 13.83370859115272",
    "OBJECT_ID": "2021-043A",
    "OBJECT_NUMBER": "48621",
    "SEMIMAJOR_AXIS": "7330.092",
    "PERIOD": "104.094",
    "APOGEE": "957.469",
    "PERIGEE": "946.445",
    "DECAYED": "0"
  },
  {
    "COMMENT": "GENERATED VIA SPACETRACK.ORG API",
    "ORIGINATOR": "18 SPCS",
    "NORAD_CAT_ID": "48621",
    "OBJECT_NAME": "HAIYANG 2D",
    "OBJECT_TYPE": "PAYLOAD",
    "CLASSIFICATION_TYPE": "U",
    "INTLDES": "21043A",
    "EPOCH": "2023-08-31 04:49:10",
    "EPOCH_MICROSECONDS": "684704",
    "MEAN_MOTION": "13.83370929",
    "ECCENTRICITY": "0.0007518",
    "INCLINATION": "65.9993",
    "RA_OF_ASC_NODE": "326.6043",
    "ARG_OF_PERICENTER": "265.985",
    "MEAN_ANOMALY": "94.0359",
    "EPHEMERIS_TYPE": "0",
    "ELEMENT_SET_NO": "999",
    "REV_AT_EPOCH": "11536",
    "BSTAR": "0.00010409",
    "MEAN_MOTION_DOT": "0.00000033",
    "MEAN_MOTION_DDOT": "0",
    "FILE": "3993586",
    "TLE_LINE0": "0 HAIYANG 2D",
    "TLE_LINE1": "1 48621U 21043A   23243.20081811  .00000033  00000-0  10409-3 0  9999",
    "TLE_LINE2": "2 48621  65.9993 326.6043 0007518 265.9850  94.0359 13.83370929115365",
    "OBJECT_ID": "2021-043A",
    "OBJECT_NUMBER": "48621",
    "SEMIMAJOR_AXIS": "7330.092",
    "PERIOD": "104.094",
    "APOGEE": "957.468",
    "PERIGEE": "946.446",
    "DECAYED": "0"
  },
  {
    "COMMENT": "GENERATED VIA SPACETRACK.ORG API",
    "ORIGINATOR": "18 SPCS",
    "NORAD_CAT_ID": "48621",
    "OBJECT_NAME": "HAIYANG 2D",
    "OBJECT_TYPE": "PAYLOAD",
    "CLASSIFICATION_TYPE": "U",
    "INTLDES": "21043A",
    "EPOCH": "2023-08-31 11:45:35",
    "EPOCH_MICROSECONDS": "812512",
    "MEAN_MOTION": "13.83370986",
    "ECCENTRICITY": "0.000752",
    "INCLINATION": "65.9993",
    "RA_OF_ASC_NODE": "325.8844",
    "ARG_OF_PERICENTER": "266.0146",
    "MEAN_ANOMALY": "94.0062",
    "EPHEMERIS_TYPE": "0",
    "ELEMENT_SET_NO": "999",
    "REV_AT_EPOCH": "11540",
    "BSTAR": "0.00010697",
    "MEAN_MOTION_DOT": "0.00000037",
    "MEAN_MOTION_DDOT": "0",
    "FILE": "3993850",
    "TLE_LINE0": "0 HAIYANG 2D",
    "TLE_LINE1": "1 48621U 21043A   23243.48999783  .00000037  00000-0  10697-3 0  9998",
    "TLE_LINE2": "2 48621  65.9993 325.8844 0007520 266.0146  94.0062 13.83370986115407",
    "OBJECT_ID": "2021-043A",
    "OBJECT_NUMBER": "48621",
    "SEMIMAJOR_AXIS": "7330.092",
    "PERIOD": "104.094",
    "APOGEE": "957.469",
    "PERIGEE": "946.444",
    "DECAYED": "0"
  }
]